{"type": "FeatureCollection", "features": [{"type": "Feature", "properties": {"code": "82001", "nom": "Albefeuille-Lagarde", "population": 582}, "geometry": {"type": "Polygon", "coordinates": [[[1.270089, 44.029191], [1.269368, 44.029497], [1.268858, 44.029668], [1.268355, 44.029807], [1.268582, 44.030053], [1.268809, 44.030217], [1.269039, 44.030327], [1.269173, 44.030491], [1.269195, 44.030716], [1.269112, 44.030915], [1.268594, 44.031909], [1.267941, 44.032995], [1.267431, 44.033312], [1.266978, 44.033846], [1.266139, 44.034894], [1.265862, 44.035326], [1.265612, 44.035753], [1.265338, 44.036099], [1.265197, 44.036309], [1.265025, 44.036492], [1.264744, 44.036859], [1.264118, 44.036661], [1.264036, 44.036904], [1.264022, 44.037191], [1.264078, 44.037617], [1.263484, 44.038303], [1.263224, 44.038722], [1.262786, 44.039263], [1.262563, 44.039557], [1.26226, 44.039866], [1.261986, 44.040052], [1.261478, 44.040335], [1.260842, 44.040729], [1.26004, 44.041249], [1.25944, 44.04166], [1.259073, 44.041926], [1.258751, 44.042082], [1.258004, 44.042318], [1.257867, 44.042382], [1.257203, 44.042933], [1.2567, 44.043324], [1.256553, 44.0434], [1.256641, 44.043642], [1.257345, 44.044389], [1.256141, 44.045303], [1.255961, 44.045164], [1.255908, 44.045069], [1.255551, 44.04539], [1.255332, 44.045514], [1.254632, 44.045706], [1.25501, 44.045906], [1.25465, 44.046773], [1.254514, 44.047423], [1.254638, 44.04823], [1.25459, 44.048525], [1.253574, 44.049758], [1.253171, 44.050454], [1.253015, 44.050895], [1.253025, 44.051102], [1.252946, 44.051351], [1.252897, 44.051649], [1.252724, 44.052443], [1.252551, 44.053184], [1.252238, 44.053985], [1.252084, 44.054476], [1.252076, 44.054638], [1.252239, 44.054847], [1.252363, 44.055461], [1.252445, 44.055641], [1.25258, 44.055695], [1.252681, 44.055664], [1.25284, 44.055461], [1.253038, 44.055341], [1.253242, 44.055289], [1.253481, 44.055314], [1.253922, 44.055405], [1.255074, 44.055681], [1.25574, 44.055804], [1.256437, 44.055881], [1.256961, 44.055957], [1.25741, 44.056075], [1.258208, 44.056315], [1.260309, 44.056984], [1.261283, 44.057316], [1.26242, 44.057677], [1.26505, 44.058448], [1.266482, 44.058824], [1.267164, 44.059032], [1.267425, 44.059152], [1.26768, 44.059314], [1.267843, 44.059479], [1.268026, 44.059744], [1.268518, 44.060658], [1.26902, 44.061672], [1.269326, 44.062187], [1.269691, 44.062717], [1.270013, 44.063145], [1.270277, 44.06354], [1.270952, 44.064472], [1.27129, 44.06482], [1.271642, 44.065072], [1.272522, 44.06562], [1.273834, 44.066366], [1.274296, 44.066637], [1.274441, 44.066792], [1.27467, 44.06732], [1.274799, 44.067477], [1.275135, 44.067647], [1.276127, 44.06798], [1.276478, 44.068136], [1.276987, 44.068324], [1.277352, 44.068485], [1.277558, 44.068599], [1.278715, 44.069025], [1.278959, 44.068641], [1.278951, 44.068376], [1.279392, 44.06783], [1.280111, 44.067037], [1.280799, 44.066207], [1.281052, 44.065943], [1.28138, 44.065501], [1.281514, 44.065363], [1.282244, 44.064501], [1.282379, 44.064364], [1.282871, 44.063766], [1.28298, 44.063605], [1.283351, 44.063165], [1.283793, 44.062558], [1.284124, 44.062145], [1.28513, 44.060785], [1.286041, 44.059474], [1.286628, 44.058583], [1.287374, 44.057468], [1.288107, 44.056416], [1.288704, 44.055702], [1.289334, 44.054834], [1.290118, 44.053899], [1.291003, 44.052868], [1.291463, 44.052425], [1.289277, 44.051374], [1.286465, 44.050227], [1.286744, 44.049852], [1.287178, 44.049068], [1.287849, 44.047762], [1.287908, 44.047566], [1.28844, 44.04663], [1.289204, 44.045238], [1.28997, 44.044185], [1.291225, 44.042062], [1.290814, 44.041912], [1.290345, 44.041766], [1.289776, 44.041545], [1.288925, 44.041236], [1.288637, 44.041104], [1.288448, 44.040897], [1.288226, 44.040443], [1.287947, 44.039939], [1.287968, 44.039666], [1.288076, 44.039595], [1.288229, 44.039394], [1.288425, 44.039062], [1.288532, 44.038837], [1.288753, 44.038282], [1.288935, 44.037667], [1.289157, 44.037237], [1.28936, 44.037012], [1.289657, 44.036793], [1.289877, 44.036593], [1.290067, 44.03636], [1.290165, 44.036092], [1.29023, 44.035728], [1.29024, 44.03543], [1.290206, 44.035266], [1.290112, 44.035045], [1.289942, 44.034211], [1.289943, 44.033679], [1.289226, 44.033635], [1.288505, 44.033606], [1.288275, 44.033623], [1.287743, 44.033471], [1.287031, 44.0332], [1.286356, 44.032954], [1.286085, 44.032888], [1.285807, 44.03289], [1.284268, 44.033021], [1.284022, 44.033101], [1.283654, 44.033363], [1.282055, 44.034575], [1.281899, 44.034683], [1.28175, 44.034712], [1.281234, 44.034706], [1.280901, 44.034759], [1.280005, 44.035008], [1.279689, 44.03512], [1.279312, 44.035316], [1.27901, 44.035541], [1.278808, 44.035634], [1.278607, 44.03566], [1.278396, 44.035624], [1.277857, 44.035363], [1.277699, 44.035341], [1.277597, 44.035263], [1.277267, 44.035121], [1.276903, 44.034927], [1.277072, 44.034638], [1.277132, 44.034412], [1.277153, 44.034168], [1.277136, 44.033952], [1.277043, 44.033444], [1.277102, 44.033169], [1.277044, 44.032921], [1.276614, 44.032311], [1.276591, 44.03213], [1.276752, 44.031845], [1.275878, 44.031326], [1.275488, 44.031459], [1.275165, 44.031224], [1.274493, 44.030904], [1.273408, 44.030336], [1.272766, 44.030259], [1.272472, 44.030275], [1.272177, 44.030346], [1.271891, 44.03033], [1.271612, 44.030446], [1.271448, 44.03042], [1.270858, 44.03009], [1.27033, 44.02956], [1.270089, 44.029191]]]}}, {"type": "Feature", "properties": {"code": "82002", "nom": "Albias", "population": 3240}, "geometry": {"type": "Polygon", "coordinates": [[[1.420069, 44.101183], [1.420422, 44.101172], [1.421906, 44.101084], [1.422761, 44.101007], [1.423498, 44.100962], [1.424174, 44.100892], [1.425607, 44.100669], [1.42586, 44.100648], [1.426585, 44.100639], [1.427179, 44.100725], [1.427797, 44.100921], [1.428075, 44.101047], [1.428579, 44.10136], [1.429844, 44.102439], [1.43039, 44.10293], [1.430524, 44.103109], [1.43069, 44.103241], [1.431014, 44.103427], [1.431093, 44.103467], [1.431993, 44.103806], [1.432411, 44.103991], [1.433704, 44.104652], [1.434573, 44.105022], [1.435149, 44.105285], [1.435318, 44.105377], [1.435568, 44.105587], [1.435839, 44.10593], [1.436107, 44.106313], [1.436528, 44.106883], [1.436527, 44.107185], [1.436887, 44.108133], [1.437267, 44.108928], [1.437574, 44.109516], [1.437715, 44.109747], [1.437942, 44.11004], [1.438185, 44.110287], [1.438679, 44.110696], [1.439031, 44.110935], [1.439319, 44.111091], [1.439676, 44.111232], [1.440108, 44.111365], [1.440459, 44.111428], [1.440797, 44.111422], [1.44128, 44.111305], [1.44157, 44.111142], [1.441798, 44.110889], [1.442222, 44.110109], [1.442427, 44.109838], [1.442537, 44.109547], [1.442705, 44.108668], [1.442788, 44.108145], [1.442763, 44.107797], [1.442674, 44.107603], [1.442498, 44.107453], [1.441836, 44.107054], [1.44173, 44.106937], [1.441558, 44.106613], [1.441534, 44.106357], [1.441599, 44.105952], [1.441691, 44.105712], [1.441874, 44.105381], [1.441955, 44.105287], [1.442259, 44.105105], [1.443032, 44.104743], [1.443675, 44.104461], [1.44461, 44.104147], [1.445265, 44.103971], [1.445759, 44.103748], [1.44613, 44.1035], [1.446763, 44.102966], [1.447326, 44.102419], [1.447451, 44.102283], [1.447687, 44.10191], [1.447912, 44.101469], [1.44797, 44.101125], [1.44795, 44.10081], [1.447826, 44.100297], [1.447713, 44.099971], [1.447399, 44.099331], [1.447184, 44.098939], [1.447069, 44.098691], [1.446838, 44.09791], [1.446784, 44.09756], [1.446776, 44.097218], [1.446852, 44.096863], [1.446971, 44.096531], [1.447146, 44.096247], [1.447397, 44.095976], [1.44773, 44.095564], [1.447933, 44.095251], [1.448057, 44.094839], [1.448044, 44.094338], [1.447896, 44.093927], [1.447869, 44.093741], [1.448244, 44.093118], [1.448493, 44.092806], [1.448849, 44.092485], [1.449295, 44.092225], [1.449715, 44.092074], [1.450199, 44.091933], [1.451882, 44.09162], [1.453498, 44.091354], [1.454858, 44.091082], [1.456422, 44.09085], [1.457058, 44.09079], [1.457582, 44.090779], [1.458306, 44.090796], [1.458993, 44.090839], [1.460359, 44.091072], [1.461283, 44.091248], [1.462047, 44.091508], [1.462736, 44.091899], [1.463566, 44.092498], [1.463902, 44.092725], [1.464172, 44.093024], [1.46447, 44.093511], [1.464935, 44.09334], [1.465104, 44.093308], [1.465458, 44.09314], [1.465948, 44.092567], [1.466131, 44.092142], [1.466265, 44.091932], [1.466982, 44.091412], [1.467094, 44.09131], [1.467366, 44.090898], [1.467518, 44.09072], [1.467954, 44.090043], [1.468086, 44.089985], [1.468491, 44.090105], [1.469819, 44.090094], [1.470411, 44.090156], [1.471435, 44.090309], [1.472105, 44.090387], [1.473426, 44.090636], [1.474112, 44.090722], [1.47487, 44.090909], [1.475922, 44.090124], [1.476113, 44.089922], [1.476789, 44.08939], [1.477372, 44.089061], [1.477664, 44.08893], [1.477874, 44.088808], [1.478443, 44.088541], [1.47904, 44.088225], [1.479669, 44.087866], [1.479824, 44.08775], [1.480084, 44.087464], [1.480321, 44.087251], [1.481269, 44.086544], [1.481681, 44.086294], [1.482031, 44.086138], [1.482366, 44.08595], [1.482836, 44.085791], [1.483313, 44.085486], [1.484125, 44.084995], [1.484677, 44.084736], [1.485361, 44.0845], [1.485839, 44.084264], [1.486129, 44.084182], [1.486356, 44.084059], [1.486767, 44.08374], [1.487161, 44.083582], [1.487538, 44.083492], [1.488031, 44.083422], [1.48835, 44.083359], [1.488956, 44.083147], [1.489274, 44.082995], [1.48952, 44.082825], [1.489651, 44.082674], [1.489701, 44.082426], [1.489769, 44.082389], [1.49031, 44.082305], [1.490553, 44.082239], [1.490922, 44.082198], [1.491169, 44.082085], [1.49153, 44.082056], [1.492172, 44.081762], [1.492256, 44.081637], [1.492288, 44.081406], [1.492504, 44.080872], [1.492656, 44.080397], [1.493008, 44.079386], [1.493184, 44.07904], [1.493199, 44.078845], [1.492864, 44.077969], [1.492731, 44.077697], [1.49242, 44.077134], [1.492222, 44.076907], [1.491809, 44.076677], [1.491604, 44.076522], [1.491492, 44.076212], [1.491459, 44.075686], [1.491582, 44.075281], [1.491603, 44.075106], [1.491545, 44.074671], [1.491599, 44.074564], [1.491877, 44.074341], [1.491993, 44.074167], [1.492023, 44.074031], [1.492022, 44.073586], [1.491966, 44.073196], [1.491975, 44.072948], [1.492134, 44.072461], [1.492081, 44.072124], [1.49216, 44.071969], [1.492347, 44.071761], [1.492659, 44.071351], [1.492869, 44.071175], [1.492944, 44.071048], [1.493339, 44.070524], [1.493466, 44.070296], [1.493561, 44.069965], [1.493723, 44.069693], [1.493842, 44.069574], [1.494365, 44.06934], [1.494537, 44.069119], [1.494811, 44.069009], [1.494916, 44.068904], [1.495109, 44.068529], [1.495332, 44.068311], [1.495577, 44.06813], [1.495795, 44.068014], [1.494497, 44.067325], [1.493624, 44.066893], [1.493282, 44.066733], [1.492755, 44.066559], [1.492413, 44.066496], [1.489593, 44.066075], [1.488579, 44.065937], [1.487804, 44.065841], [1.485808, 44.065556], [1.485371, 44.065478], [1.484709, 44.065395], [1.484323, 44.065323], [1.483487, 44.065233], [1.482889, 44.065186], [1.482468, 44.065124], [1.48199, 44.06499], [1.480232, 44.064385], [1.479646, 44.06416], [1.478744, 44.063835], [1.478362, 44.063714], [1.475476, 44.063111], [1.475071, 44.06302], [1.474609, 44.06286], [1.473862, 44.062621], [1.473127, 44.062452], [1.471963, 44.062213], [1.470867, 44.061955], [1.468905, 44.061368], [1.468645, 44.061272], [1.467019, 44.060664], [1.466813, 44.060553], [1.466162, 44.060158], [1.463934, 44.058782], [1.462734, 44.058066], [1.462022, 44.057761], [1.461456, 44.057568], [1.461161, 44.058073], [1.461038, 44.058461], [1.460868, 44.058797], [1.460482, 44.058851], [1.46025, 44.058823], [1.45994, 44.058837], [1.459338, 44.058968], [1.459117, 44.058997], [1.458741, 44.058868], [1.458641, 44.058962], [1.458527, 44.059224], [1.458356, 44.05938], [1.45811, 44.059549], [1.457811, 44.059699], [1.457224, 44.059889], [1.456629, 44.060011], [1.456414, 44.060118], [1.456113, 44.060188], [1.455319, 44.060407], [1.454699, 44.060763], [1.454399, 44.060915], [1.454179, 44.061061], [1.453778, 44.061588], [1.453348, 44.062062], [1.453286, 44.062352], [1.452983, 44.0628], [1.452866, 44.062945], [1.45274, 44.062963], [1.452134, 44.062911], [1.451735, 44.062834], [1.450984, 44.063188], [1.450671, 44.063353], [1.449901, 44.063708], [1.449706, 44.064036], [1.449578, 44.064198], [1.449158, 44.064482], [1.448753, 44.064842], [1.448292, 44.065047], [1.447918, 44.065317], [1.447527, 44.065571], [1.447277, 44.065707], [1.447188, 44.065966], [1.447109, 44.066024], [1.446805, 44.0661], [1.44646, 44.066118], [1.446182, 44.066183], [1.446058, 44.066252], [1.445793, 44.066467], [1.445416, 44.066709], [1.444999, 44.066919], [1.444652, 44.067028], [1.443678, 44.067296], [1.443475, 44.067315], [1.442556, 44.067281], [1.441653, 44.067343], [1.441109, 44.067392], [1.440665, 44.06747], [1.440375, 44.067406], [1.439917, 44.067102], [1.439807, 44.066909], [1.439434, 44.066581], [1.439089, 44.066388], [1.438273, 44.066249], [1.43769, 44.066208], [1.437472, 44.066216], [1.437092, 44.066346], [1.436528, 44.066581], [1.436306, 44.066644], [1.436138, 44.066861], [1.436024, 44.06696], [1.435961, 44.067116], [1.435856, 44.067184], [1.4355, 44.067275], [1.435282, 44.067373], [1.43509, 44.067408], [1.434909, 44.067377], [1.434712, 44.067293], [1.434248, 44.067028], [1.434084, 44.06697], [1.433859, 44.066955], [1.433643, 44.066979], [1.433399, 44.067082], [1.433215, 44.06725], [1.432987, 44.067841], [1.432891, 44.067928], [1.43168, 44.068374], [1.429918, 44.068944], [1.429431, 44.069064], [1.428563, 44.069214], [1.428199, 44.069247], [1.427426, 44.069353], [1.4266, 44.06949], [1.42647, 44.06954], [1.426321, 44.069694], [1.426098, 44.070142], [1.425817, 44.070814], [1.425469, 44.071319], [1.425162, 44.071586], [1.424935, 44.071753], [1.424872, 44.071846], [1.424857, 44.072202], [1.424698, 44.072437], [1.424532, 44.072536], [1.424289, 44.072622], [1.423985, 44.072645], [1.423709, 44.07261], [1.423242, 44.072488], [1.422748, 44.072515], [1.422522, 44.072588], [1.421836, 44.072646], [1.42174, 44.072676], [1.421327, 44.072705], [1.421183, 44.07269], [1.420411, 44.072703], [1.419997, 44.072722], [1.419863, 44.072785], [1.419779, 44.073054], [1.419495, 44.0733], [1.418766, 44.073571], [1.418123, 44.073847], [1.417717, 44.073991], [1.416879, 44.074208], [1.416671, 44.074371], [1.416293, 44.074073], [1.41594, 44.074288], [1.415712, 44.074462], [1.415501, 44.074671], [1.415366, 44.07487], [1.41516, 44.075242], [1.414886, 44.075543], [1.414756, 44.075793], [1.414613, 44.076166], [1.414436, 44.076325], [1.414282, 44.076414], [1.413776, 44.076824], [1.413474, 44.077324], [1.413363, 44.077556], [1.413169, 44.077832], [1.413131, 44.077947], [1.413119, 44.0782], [1.413028, 44.078369], [1.412909, 44.078489], [1.412743, 44.078565], [1.412534, 44.078773], [1.412295, 44.079122], [1.41229, 44.079247], [1.41269, 44.079456], [1.412528, 44.079595], [1.412484, 44.079791], [1.41274, 44.080093], [1.412839, 44.08035], [1.412761, 44.080398], [1.412126, 44.080555], [1.411698, 44.080715], [1.410617, 44.081155], [1.410304, 44.081271], [1.410043, 44.081293], [1.409774, 44.081354], [1.409528, 44.081532], [1.409479, 44.082061], [1.409254, 44.082266], [1.409091, 44.082314], [1.40865, 44.08232], [1.408466, 44.08236], [1.408238, 44.08247], [1.407843, 44.082579], [1.407627, 44.082667], [1.406887, 44.083262], [1.406612, 44.083372], [1.406163, 44.083703], [1.405995, 44.083954], [1.406349, 44.084252], [1.406897, 44.084552], [1.407047, 44.084702], [1.407225, 44.085065], [1.407304, 44.085418], [1.407308, 44.085625], [1.407262, 44.0862], [1.4073, 44.086676], [1.407345, 44.086956], [1.407374, 44.087696], [1.407473, 44.087943], [1.4077, 44.088281], [1.40778, 44.088363], [1.406971, 44.08918], [1.406821, 44.089502], [1.406475, 44.089767], [1.406282, 44.089858], [1.406004, 44.09011], [1.405862, 44.090321], [1.405902, 44.090469], [1.406159, 44.090658], [1.406979, 44.091192], [1.408334, 44.092123], [1.409066, 44.092392], [1.410821, 44.093339], [1.411371, 44.093758], [1.411611, 44.093966], [1.411823, 44.094205], [1.412067, 44.094416], [1.41092, 44.095112], [1.411057, 44.095451], [1.411509, 44.096506], [1.411904, 44.097318], [1.412301, 44.097992], [1.412655, 44.098455], [1.413192, 44.098929], [1.414543, 44.099932], [1.414877, 44.100221], [1.415837, 44.100642], [1.416714, 44.100961], [1.417336, 44.101079], [1.417819, 44.101141], [1.418422, 44.101188], [1.41913, 44.101197], [1.420069, 44.101183]]]}}, {"type": "Feature", "properties": {"code": "82003", "nom": "Angeville", "population": 239}, "geometry": {"type": "Polygon", "coordinates": [[[1.009759, 43.989448], [1.009837, 43.989723], [1.010011, 43.989809], [1.01043, 43.989909], [1.010548, 43.990024], [1.010544, 43.990142], [1.010625, 43.990441], [1.010725, 43.990592], [1.010825, 43.990661], [1.011196, 43.990547], [1.011345, 43.990566], [1.011415, 43.990769], [1.011494, 43.990873], [1.011788, 43.990993], [1.011814, 43.991157], [1.011504, 43.991299], [1.011246, 43.991301], [1.010845, 43.991271], [1.010711, 43.991335], [1.010546, 43.991629], [1.010639, 43.991733], [1.009903, 43.992219], [1.009854, 43.992437], [1.010037, 43.992808], [1.01017, 43.993358], [1.009894, 43.99338], [1.00979, 43.993636], [1.010315, 43.993854], [1.010817, 43.994534], [1.010713, 43.995105], [1.011436, 43.995239], [1.011762, 43.995058], [1.012118, 43.995256], [1.012215, 43.995554], [1.012354, 43.995618], [1.012522, 43.995563], [1.012698, 43.995601], [1.013294, 43.995826], [1.013964, 43.996059], [1.014119, 43.996159], [1.014305, 43.996394], [1.014504, 43.996405], [1.014671, 43.996315], [1.014858, 43.996324], [1.015068, 43.996528], [1.014925, 43.996974], [1.015023, 43.997476], [1.015419, 43.997478], [1.016137, 43.997148], [1.016347, 43.997275], [1.016432, 43.997417], [1.016572, 43.997509], [1.016802, 43.997591], [1.016923, 43.997741], [1.017031, 43.998032], [1.016857, 43.9983], [1.016702, 43.998418], [1.016263, 43.9986], [1.016118, 43.998696], [1.016336, 43.999188], [1.016563, 43.999844], [1.016616, 44.000092], [1.01659, 44.000231], [1.016298, 44.000334], [1.016295, 44.000396], [1.016504, 44.000596], [1.016528, 44.000707], [1.016417, 44.00085], [1.016261, 44.000963], [1.016311, 44.001123], [1.016444, 44.001336], [1.016573, 44.001445], [1.016898, 44.001523], [1.017406, 44.001603], [1.01759, 44.001672], [1.017801, 44.001891], [1.017858, 44.002174], [1.017956, 44.002339], [1.018091, 44.002479], [1.018538, 44.00288], [1.018675, 44.003209], [1.018699, 44.003382], [1.018768, 44.003551], [1.018872, 44.00366], [1.01894, 44.003973], [1.019106, 44.0043], [1.019175, 44.0045], [1.019322, 44.004791], [1.019411, 44.005048], [1.019377, 44.005127], [1.019134, 44.005267], [1.019091, 44.005355], [1.019314, 44.005793], [1.019342, 44.005996], [1.019208, 44.006282], [1.019271, 44.00641], [1.019549, 44.006641], [1.019721, 44.006958], [1.019931, 44.007263], [1.020087, 44.007556], [1.020173, 44.00799], [1.020103, 44.008107], [1.019867, 44.008293], [1.019702, 44.008499], [1.019712, 44.008606], [1.019998, 44.008923], [1.020245, 44.00911], [1.020315, 44.009296], [1.021407, 44.009366], [1.021762, 44.009364], [1.022153, 44.009337], [1.022972, 44.009054], [1.023505, 44.009015], [1.024134, 44.008949], [1.024881, 44.008959], [1.025461, 44.009046], [1.026091, 44.009122], [1.026772, 44.009187], [1.027306, 44.009206], [1.027767, 44.009206], [1.028474, 44.009174], [1.02886, 44.009141], [1.029883, 44.008994], [1.030496, 44.009036], [1.031015, 44.008987], [1.031644, 44.008985], [1.03185, 44.008803], [1.031992, 44.008782], [1.032119, 44.008842], [1.03253, 44.00881], [1.03269, 44.008866], [1.032896, 44.009046], [1.033569, 44.009075], [1.033974, 44.009015], [1.03428, 44.008862], [1.034474, 44.0087], [1.034615, 44.008424], [1.035015, 44.008294], [1.03525, 44.008272], [1.035638, 44.008311], [1.035968, 44.00832], [1.036347, 44.008356], [1.036431, 44.008226], [1.036753, 44.008204], [1.036885, 44.008231], [1.037279, 44.008391], [1.037694, 44.008446], [1.037948, 44.008456], [1.038203, 44.008431], [1.038572, 44.008296], [1.038962, 44.008078], [1.039448, 44.00792], [1.039609, 44.007824], [1.039826, 44.00764], [1.040368, 44.007579], [1.042186, 44.007586], [1.042339, 44.007567], [1.042672, 44.007462], [1.04325, 44.00733], [1.043501, 44.007103], [1.044223, 44.006871], [1.044319, 44.006756], [1.044498, 44.006364], [1.044802, 44.006239], [1.044876, 44.006133], [1.044832, 44.006045], [1.04487, 44.005907], [1.045104, 44.005594], [1.045389, 44.005299], [1.045625, 44.005151], [1.045931, 44.005041], [1.046217, 44.004975], [1.046672, 44.004917], [1.047169, 44.00488], [1.047333, 44.004842], [1.047487, 44.004756], [1.047575, 44.004636], [1.048024, 44.004441], [1.048495, 44.00429], [1.049092, 44.00418], [1.049865, 44.003936], [1.050134, 44.003832], [1.050539, 44.003586], [1.050874, 44.003347], [1.051034, 44.003294], [1.051647, 44.003222], [1.052073, 44.003233], [1.052403, 44.003146], [1.05281, 44.002959], [1.053218, 44.002707], [1.053892, 44.002184], [1.054091, 44.002072], [1.054437, 44.001931], [1.05459, 44.001766], [1.054833, 44.001743], [1.054932, 44.001699], [1.055282, 44.001369], [1.055432, 44.001305], [1.055769, 44.001248], [1.055985, 44.001157], [1.056097, 44.001062], [1.056941, 44.000797], [1.057129, 44.000681], [1.057388, 44.000611], [1.057559, 44.000484], [1.057771, 44.000471], [1.058078, 44.000395], [1.058504, 44.000083], [1.058329, 43.999994], [1.057676, 43.999387], [1.057326, 43.999083], [1.057152, 43.998904], [1.056627, 43.998433], [1.056142, 43.998104], [1.055767, 43.997882], [1.054876, 43.997313], [1.055463, 43.996507], [1.054597, 43.995677], [1.054053, 43.995689], [1.053473, 43.995283], [1.05325, 43.995174], [1.052975, 43.995076], [1.051181, 43.994131], [1.051333, 43.993958], [1.051318, 43.993808], [1.050152, 43.993369], [1.05021, 43.993052], [1.048525, 43.992613], [1.048642, 43.992409], [1.047877, 43.9922], [1.047502, 43.991952], [1.046833, 43.991732], [1.046974, 43.992007], [1.046797, 43.992133], [1.044653, 43.991292], [1.043676, 43.99163], [1.041506, 43.99151], [1.041736, 43.991188], [1.041868, 43.990929], [1.041939, 43.990691], [1.04193, 43.990438], [1.041808, 43.990103], [1.04147, 43.989586], [1.04087, 43.989199], [1.0406, 43.989055], [1.040371, 43.988994], [1.039706, 43.988942], [1.039354, 43.988845], [1.038917, 43.98866], [1.038501, 43.988354], [1.037252, 43.986966], [1.037086, 43.986689], [1.036955, 43.986319], [1.036791, 43.986125], [1.036518, 43.985922], [1.036383, 43.985783], [1.036324, 43.985358], [1.036225, 43.985107], [1.036077, 43.98483], [1.035713, 43.984102], [1.035528, 43.98385], [1.035241, 43.983584], [1.035124, 43.983383], [1.034914, 43.982756], [1.034916, 43.982631], [1.035057, 43.982496], [1.03506, 43.982371], [1.034702, 43.98177], [1.034554, 43.981233], [1.034384, 43.980762], [1.034168, 43.980471], [1.033594, 43.979856], [1.033545, 43.979743], [1.033248, 43.978164], [1.033241, 43.977203], [1.033311, 43.975955], [1.033597, 43.974688], [1.033832, 43.973752], [1.034303, 43.973018], [1.034386, 43.972954], [1.034767, 43.972789], [1.034866, 43.972557], [1.035142, 43.972186], [1.035417, 43.971877], [1.035699, 43.971618], [1.03598, 43.971502], [1.036589, 43.971292], [1.036132, 43.970487], [1.035636, 43.96948], [1.035653, 43.969038], [1.035356, 43.968066], [1.035305, 43.967781], [1.034734, 43.967935], [1.034293, 43.967989], [1.034115, 43.968076], [1.034053, 43.967985], [1.033567, 43.968091], [1.032104, 43.968465], [1.031881, 43.968531], [1.031842, 43.968593], [1.031548, 43.968649], [1.03134, 43.968696], [1.031101, 43.968794], [1.03086, 43.968968], [1.030887, 43.969137], [1.030811, 43.969348], [1.030666, 43.969537], [1.030492, 43.970005], [1.030399, 43.970446], [1.030432, 43.970656], [1.030652, 43.971061], [1.030652, 43.971347], [1.030684, 43.971536], [1.030683, 43.971794], [1.030638, 43.971875], [1.030415, 43.972071], [1.030292, 43.972298], [1.030174, 43.972423], [1.029907, 43.972636], [1.029643, 43.972802], [1.029463, 43.973033], [1.028972, 43.973547], [1.028836, 43.97373], [1.028766, 43.974052], [1.028939, 43.974272], [1.028813, 43.974459], [1.028494, 43.975031], [1.028221, 43.97541], [1.028054, 43.975579], [1.027823, 43.975655], [1.027415, 43.97566], [1.027156, 43.975803], [1.026998, 43.975975], [1.026776, 43.976091], [1.026656, 43.976211], [1.026584, 43.976425], [1.026297, 43.97671], [1.025961, 43.977091], [1.025592, 43.977262], [1.025293, 43.977513], [1.024819, 43.977642], [1.02454, 43.977767], [1.024153, 43.978022], [1.023976, 43.978216], [1.023838, 43.978423], [1.023661, 43.978624], [1.023229, 43.978933], [1.022586, 43.979332], [1.022482, 43.979424], [1.022375, 43.979678], [1.022292, 43.979785], [1.022087, 43.979883], [1.021777, 43.979862], [1.021087, 43.979975], [1.020925, 43.980026], [1.020628, 43.980204], [1.020063, 43.980351], [1.019881, 43.980459], [1.019554, 43.980529], [1.019251, 43.98073], [1.019142, 43.980848], [1.019137, 43.980948], [1.01894, 43.981145], [1.018731, 43.98154], [1.018574, 43.982023], [1.018475, 43.982233], [1.018324, 43.982439], [1.018077, 43.982671], [1.017708, 43.983117], [1.017542, 43.983254], [1.016895, 43.983674], [1.016648, 43.983861], [1.016323, 43.984072], [1.016157, 43.98422], [1.015794, 43.984808], [1.015612, 43.985026], [1.015428, 43.985172], [1.015401, 43.985332], [1.015262, 43.985586], [1.014909, 43.986074], [1.014325, 43.986424], [1.014002, 43.986583], [1.01387, 43.986688], [1.013659, 43.986917], [1.013405, 43.987312], [1.013282, 43.987471], [1.013032, 43.987702], [1.012759, 43.987914], [1.012457, 43.988105], [1.012116, 43.988249], [1.011478, 43.988434], [1.01116, 43.988539], [1.010627, 43.988951], [1.010322, 43.989168], [1.00995, 43.989367], [1.009759, 43.989448]]]}}]}