{"type": "FeatureCollection", "totalFeatures": 543, "numberMatched": 543, "numberReturned": 543, "timeStamp": "2026-10-01T15:01:37.764Z", "crs": {"type": "name", "properties": {"name": "urn:ogc:def:crs:EPSG::4326"}}, "features": [{"type": "Feature", "id": "parcelles_graphiques.13165", "geometry": {"type": "MultiPolygon", "coordinates": [[[[1.06339868, 44.13921578], [1.06355986, 44.13911302], [1.06351239, 44.13907008], [1.06340045, 44.13914001], [1.06337293, 44.13919375], [1.06339868, 44.13921578]]]]}, "geometry_name": "geom", "properties": {"id_parcel": "3283205", "surf_parc": 0.01, "code_cultu": "BOR", "code_group": "28", "culture_d1": null, "culture_d2": null, "cat_cult_p": null}}, {"type": "Feature", "id": "parcelles_graphiques.13166", "geometry": {"type": "MultiPolygon", "coordinates": [[[[1.06360415, 44.13906915], [1.06375132, 44.13897476], [1.06374494, 44.13896958], [1.06374375, 44.13890786], [1.06364231, 44.13882176], [1.06367873, 44.13896616], [1.06356612, 44.13903651], [1.06360415, 44.13906915]]]]}, "geometry_name": "geom", "properties": {"id_parcel": "11484178", "surf_parc": 0.01, "code_cultu": "BOR", "code_group": "28", "culture_d1": null, "culture_d2": null, "cat_cult_p": null}}, {"type": "Feature", "id": "parcelles_graphiques.37995", "geometry": {"type": "MultiPolygon", "coordinates": [[[[1.09310751, 44.15542645], [1.0930482, 44.15554904], [1.09330815, 44.15557756], [1.09311201, 44.15542919], [1.09310751, 44.15542645]]]]}, "geometry_name": "geom", "properties": {"id_parcel": "1748519", "surf_parc": 0.01, "code_cultu": "PPH", "code_group": "18", "culture_d1": null, "culture_d2": null, "cat_cult_p": "PP"}}, {"type": "Feature", "id": "parcelles_graphiques.48235", "geometry": {"type": "MultiPolygon", "coordinates": [[[[1.0609693, 44.15806476], [1.06107419, 44.15817196], [1.06109546, 44.15811779], [1.06120518, 44.15819717], [1.06105915, 44.15800689], [1.0609693, 44.15806476]]]]}, "geometry_name": "geom", "properties": {"id_parcel": "11486426", "surf_parc": 0.01, "code_cultu": "SNE", "code_group": "28", "culture_d1": null, "culture_d2": null, "cat_cult_p": "NA"}}, {"type": "Feature", "id": "parcelles_graphiques.48266", "geometry": {"type": "MultiPolygon", "coordinates": [[[[1.06584367, 44.12568736], [1.06581868, 44.12565806], [1.06555592, 44.12581224], [1.06557984, 44.1258312], [1.06583824, 44.12568448], [1.06584367, 44.12568736]]]]}, "geometry_name": "geom", "properties": {"id_parcel": "11483375", "surf_parc": 0.01, "code_cultu": "SNE", "code_group": "28", "culture_d1": null, "culture_d2": null, "cat_cult_p": "NA"}}, {"type": "Feature", "id": "parcelles_graphiques.48275", "geometry": {"type": "MultiPolygon", "coordinates": [[[[1.10281245, 44.16399676], [1.10289334, 44.16393707], [1.1028433, 44.16390238], [1.10276331, 44.16396079], [1.10281245, 44.16399676]]]]}, "geometry_name": "geom", "properties": {"id_parcel": "11494077", "surf_parc": 0.01, "code_cultu": "SNE", "code_group": "28", "culture_d1": null, "culture_d2": null, "cat_cult_p": "NA"}}, {"type": "Feature", "id": "parcelles_graphiques.91296", "geometry": {"type": "MultiPolygon", "coordinates": [[[[1.06293156, 44.13908567], [1.0631561, 44.13927564], [1.06315097, 44.13923611], [1.06290144, 44.13901587], [1.06276532, 44.13910138], [1.06268895, 44.13914804], [1.0627608, 44.13920572], [1.06293156, 44.13908567]]]]}, "geometry_name": "geom", "properties": {"id_parcel": "4843373", "surf_parc": 0.02, "code_cultu": "BOR", "code_group": "28", "culture_d1": null, "culture_d2": null, "cat_cult_p": null}}, {"type": "Feature", "id": "parcelles_graphiques.91297", "geometry": {"type": "MultiPolygon", "coordinates": [[[[1.0641391, 44.1396092], [1.06414625, 44.13960556], [1.06360126, 44.13913504], [1.06359906, 44.13906478], [1.06356612, 44.13903652], [1.06356612, 44.13903652], [1.06356611, 44.13903651], [1.06352004, 44.1390653], [1.06351239, 44.13907008], [1.06359361, 44.13914355], [1.06411937, 44.13961925], [1.06411937, 44.13961925], [1.0641391, 44.1396092]]]]}, "geometry_name": "geom", "properties": {"id_parcel": "2314927", "surf_parc": 0.02, "code_cultu": "BOR", "code_group": "28", "culture_d1": null, "culture_d2": null, "cat_cult_p": null}}, {"type": "Feature", "id": "parcelles_graphiques.91298", "geometry": {"type": "MultiPolygon", "coordinates": [[[[1.07145194, 44.12868639], [1.07174413, 44.12862213], [1.07170932, 44.12855084], [1.07142125, 44.12861762], [1.07145194, 44.12868639]]]]}, "geometry_name": "geom", "properties": {"id_parcel": "3061770", "surf_parc": 0.02, "code_cultu": "BOR", "code_group": "28", "culture_d1": null, "culture_d2": null, "cat_cult_p": null}}, {"type": "Feature", "id": "parcelles_graphiques.91299", "geometry": {"type": "MultiPolygon", "coordinates": [[[[1.07174439, 44.12862265], [1.07200688, 44.12856445], [1.07197029, 44.12849033], [1.07170932, 44.12855084], [1.07174439, 44.12862265]]]]}, "geometry_name": "geom", "properties": {"id_parcel": "4210632", "surf_parc": 0.02, "code_cultu": "BOR", "code_group": "28", "culture_d1": null, "culture_d2": null, "cat_cult_p": null}}, {"type": "Feature", "id": "parcelles_graphiques.91300", "geometry": {"type": "MultiPolygon", "coordinates": [[[[1.07232838, 44.12921565], [1.0720524, 44.12925356], [1.072085, 44.12932034], [1.07231562, 44.12927703], [1.07233804, 44.12927283], [1.07235504, 44.12926963], [1.07232838, 44.12921565]]]]}, "geometry_name": "geom", "properties": {"id_parcel": "2801407", "surf_parc": 0.02, "code_cultu": "BOR", "code_group": "28", "culture_d1": null, "culture_d2": null, "cat_cult_p": null}}, {"type": "Feature", "id": "parcelles_graphiques.105992", "geometry": {"type": "MultiPolygon", "coordinates": [[[[1.04792172, 44.16009829], [1.04796733, 44.16012908], [1.04797632, 44.16012198], [1.04827915, 44.15988316], [1.04822774, 44.15985694], [1.04792172, 44.16009829]]]]}, "geometry_name": "geom", "properties": {"id_parcel": "9397760", "surf_parc": 0.02, "code_cultu": "BTA", "code_group": "28", "culture_d1": null, "culture_d2": null, "cat_cult_p": null}}, {"type": "Feature", "id": "parcelles_graphiques.142403", "geometry": {"type": "MultiPolygon", "coordinates": [[[[1.07895517, 44.14156796], [1.07906087, 44.14163295], [1.07921961, 44.14152765], [1.07910951, 44.14146759], [1.07895517, 44.14156796]]]]}, "geometry_name": "geom", "properties": {"id_parcel": "4997906", "surf_parc": 0.02, "code_cultu": "SNE", "code_group": "28", "culture_d1": null, "culture_d2": null, "cat_cult_p": "NA"}}, {"type": "Feature", "id": "parcelles_graphiques.186006", "geometry": {"type": "MultiPolygon", "coordinates": [[[[1.06413343, 44.13833516], [1.06457386, 44.13805942], [1.06452122, 44.13801059], [1.06408376, 44.13828755], [1.06413343, 44.13833516]]]]}, "geometry_name": "geom", "properties": {"id_parcel": "1075421", "surf_parc": 0.03, "code_cultu": "BOR", "code_group": "28", "culture_d1": null, "culture_d2": null, "cat_cult_p": null}}, {"type": "Feature", "id": "parcelles_graphiques.186007", "geometry": {"type": "MultiPolygon", "coordinates": [[[[1.0658109, 44.13920698], [1.06581092, 44.13920697], [1.06576138, 44.13916102], [1.06532205, 44.13942025], [1.06506735, 44.13919008], [1.06504004, 44.13920423], [1.06530501, 44.13944638], [1.06530501, 44.13944638], [1.06551522, 44.13934691], [1.0658109, 44.13920698], [1.0658109, 44.13920698]]]]}, "geometry_name": "geom", "properties": {"id_parcel": "6975254", "surf_parc": 0.03, "code_cultu": "BOR", "code_group": "28", "culture_d1": null, "culture_d2": null, "cat_cult_p": null}}, {"type": "Feature", "id": "parcelles_graphiques.186008", "geometry": {"type": "MultiPolygon", "coordinates": [[[[1.07201995, 44.13052757], [1.07204176, 44.13057837], [1.07218594, 44.1305445], [1.07200155, 44.13008463], [1.07175279, 44.12949992], [1.07165289, 44.12951623], [1.07163054, 44.12946832], [1.07157093, 44.12948191], [1.07159639, 44.12954122], [1.0717334, 44.12951772], [1.07215704, 44.13049421], [1.07201995, 44.13052757]]]]}, "geometry_name": "geom", "properties": {"id_parcel": "1063040", "surf_parc": 0.03, "code_cultu": "BOR", "code_group": "28", "culture_d1": null, "culture_d2": null, "cat_cult_p": null}}, {"type": "Feature", "id": "parcelles_graphiques.186009", "geometry": {"type": "MultiPolygon", "coordinates": [[[[1.07203457, 44.12921705], [1.07172118, 44.12928978], [1.07174342, 44.12933961], [1.07183918, 44.12931053], [1.07187294, 44.12936015], [1.072085, 44.12932034], [1.07203457, 44.12921705]]]]}, "geometry_name": "geom", "properties": {"id_parcel": "2480121", "surf_parc": 0.03, "code_cultu": "BOR", "code_group": "28", "culture_d1": null, "culture_d2": null, "cat_cult_p": null}}, {"type": "Feature", "id": "parcelles_graphiques.212116", "geometry": {"type": "MultiPolygon", "coordinates": [[[[1.0668572, 44.13656732], [1.06678641, 44.13660657], [1.06698941, 44.13676499], [1.06699602, 44.1367651], [1.06701634, 44.13675117], [1.06723893, 44.13691708], [1.06728933, 44.13689414], [1.0668572, 44.13656732]]]]}, "geometry_name": "geom", "properties": {"id_parcel": "4372551", "surf_parc": 0.03, "code_cultu": "CBT", "code_group": "20", "culture_d1": null, "culture_d2": null, "cat_cult_p": "CP"}}, {"type": "Feature", "id": "parcelles_graphiques.216728", "geometry": {"type": "MultiPolygon", "coordinates": [[[[1.04767799, 44.145067], [1.0476603, 44.14508735], [1.0478801, 44.14517297], [1.04823444, 44.14538873], [1.0482928, 44.14536533], [1.0482748, 44.14535436], [1.04792045, 44.1451386], [1.04790984, 44.14513339], [1.04769157, 44.14504836], [1.04767799, 44.145067]]]]}, "geometry_name": "geom", "properties": {"id_parcel": "791632", "surf_parc": 0.03, "code_cultu": "JAC", "code_group": "11", "culture_d1": null, "culture_d2": null, "cat_cult_p": "TA"}}, {"type": "Feature", "id": "parcelles_graphiques.216742", "geometry": {"type": "MultiPolygon", "coordinates": [[[[1.0875523, 44.16819962], [1.08729128, 44.16824494], [1.08729126, 44.16824496], [1.08760257, 44.16848296], [1.0875523, 44.16819962]]]]}, "geometry_name": "geom", "properties": {"id_parcel": "4760690", "surf_parc": 0.03, "code_cultu": "JAC", "code_group": "11", "culture_d1": null, "culture_d2": null, "cat_cult_p": "TA"}}, {"type": "Feature", "id": "parcelles_graphiques.216743", "geometry": {"type": "MultiPolygon", "coordinates": [[[[1.08960815, 44.17006958], [1.08971202, 44.16993322], [1.08971928, 44.16991429], [1.08947032, 44.16992403], [1.08948118, 44.17004591], [1.08944258, 44.17007858], [1.08939293, 44.1701206], [1.08939784, 44.17012308], [1.08950763, 44.17010594], [1.08960815, 44.17006958]]]]}, "geometry_name": "geom", "properties": {"id_parcel": "2928490", "surf_parc": 0.03, "code_cultu": "JAC", "code_group": "11", "culture_d1": null, "culture_d2": null, "cat_cult_p": "TA"}}, {"type": "Feature", "id": "parcelles_graphiques.229809", "geometry": {"type": "MultiPolygon", "coordinates": [[[[1.08758905, 44.16761762], [1.08747757, 44.16738105], [1.08743946, 44.16743045], [1.08735938, 44.16754816], [1.08737156, 44.16757934], [1.08740691, 44.16761092], [1.08758905, 44.16761762]]]]}, "geometry_name": "geom", "properties": {"id_parcel": "3958501", "surf_parc": 0.03, "code_cultu": "PPH", "code_group": "18", "culture_d1": null, "culture_d2": null, "cat_cult_p": "PP"}}, {"type": "Feature", "id": "parcelles_graphiques.245369", "geometry": {"type": "MultiPolygon", "coordinates": [[[[1.10549115, 44.14708573], [1.10545972, 44.14703635], [1.10539359, 44.14703521], [1.10517512, 44.14693973], [1.10506671, 44.14691665], [1.10498746, 44.1469123], [1.10491258, 44.14692567], [1.1044044, 44.1470604], [1.10431258, 44.14708561], [1.10422375, 44.14709598], [1.10423613, 44.14712121], [1.10436666, 44.14710084], [1.1045779, 44.14704136], [1.10487683, 44.14695601], [1.10497969, 44.14694671], [1.10503589, 44.14694805], [1.10511328, 44.14695891], [1.10514781, 44.14696511], [1.10525698, 44.14701499], [1.10533211, 44.14704368], [1.10541227, 44.14707008], [1.10549115, 44.14708573]]]]}, "geometry_name": "geom", "properties": {"id_parcel": "8452375", "surf_parc": 0.03, "code_cultu": "SNE", "code_group": "28", "culture_d1": null, "culture_d2": null, "cat_cult_p": "NA"}}, {"type": "Feature", "id": "parcelles_graphiques.278691", "geometry": {"type": "MultiPolygon", "coordinates": [[[[1.0652833, 44.12772921], [1.06538391, 44.12822598], [1.06545273, 44.12822294], [1.06536532, 44.12773009], [1.0652833, 44.12772921]]]]}, "geometry_name": "geom", "properties": {"id_parcel": "11497333", "surf_parc": 0.03, "code_cultu": "VRG", "code_group": "20", "culture_d1": null, "culture_d2": null, "cat_cult_p": "CP"}}, {"type": "Feature", "id": "parcelles_graphiques.298536", "geometry": {"type": "MultiPolygon", "coordinates": [[[[1.10617309, 44.14394899], [1.10600692, 44.14377341], [1.10575746, 44.14361546], [1.10556102, 44.14345484], [1.10549951, 44.14347284], [1.10553853, 44.14350999], [1.10554344, 44.14350856], [1.10571056, 44.1436452], [1.10571619, 44.14364925], [1.10595972, 44.14380345], [1.10607226, 44.14392236], [1.10606798, 44.14392321], [1.10610698, 44.14396214], [1.10617309, 44.14394899]]]]}, "geometry_name": "geom", "properties": {"id_parcel": "6057554", "surf_parc": 0.04, "code_cultu": "BTA", "code_group": "28", "culture_d1": null, "culture_d2": null, "cat_cult_p": null}}, {"type": "Feature", "id": "parcelles_graphiques.315776", "geometry": {"type": "MultiPolygon", "coordinates": [[[[1.06105354, 44.13942875], [1.06123167, 44.13957283], [1.06128262, 44.1392902], [1.06107331, 44.13928314], [1.06105354, 44.13942875]]]]}, "geometry_name": "geom", "properties": {"id_parcel": "8213755", "surf_parc": 0.04, "code_cultu": "JAC", "code_group": "11", "culture_d1": null, "culture_d2": null, "cat_cult_p": "TA"}}, {"type": "Feature", "id": "parcelles_graphiques.324996", "geometry": {"type": "MultiPolygon", "coordinates": [[[[1.08431543, 44.16898039], [1.0846281, 44.16883577], [1.08452264, 44.16872435], [1.08421312, 44.16887379], [1.08431543, 44.16898039]]]]}, "geometry_name": "geom", "properties": {"id_parcel": "11492139", "surf_parc": 0.04, "code_cultu": "MDI", "code_group": "25", "culture_d1": null, "culture_d2": null, "cat_cult_p": "TA"}}, {"type": "Feature", "id": "parcelles_graphiques.329482", "geometry": {"type": "MultiPolygon", "coordinates": [[[[1.04989066, 44.14314483], [1.04993367, 44.14278827], [1.04945313, 44.14276543], [1.04945924, 44.14276787], [1.04937234, 44.14276109], [1.0493238, 44.14292222], [1.04908908, 44.14291804], [1.0490864, 44.14294881], [1.04931242, 44.14296758], [1.04936714, 44.14281476], [1.04987684, 44.14283055], [1.04986647, 44.14313395], [1.04986645, 44.14314609], [1.04989066, 44.14314483]]]]}, "geometry_name": "geom", "properties": {"id_parcel": "11491344", "surf_parc": 0.04, "code_cultu": "PPH", "code_group": "18", "culture_d1": null, "culture_d2": null, "cat_cult_p": "PP"}}, {"type": "Feature", "id": "parcelles_graphiques.329494", "geometry": {"type": "MultiPolygon", "coordinates": [[[[1.07255878, 44.12867914], [1.07276267, 44.12912012], [1.07285868, 44.12909863], [1.07265923, 44.12865211], [1.07255878, 44.12867914]]]]}, "geometry_name": "geom", "properties": {"id_parcel": "11497624", "surf_parc": 0.04, "code_cultu": "PPH", "code_group": "18", "culture_d1": null, "culture_d2": null, "cat_cult_p": "PP"}}, {"type": "Feature", "id": "parcelles_graphiques.345759", "geometry": {"type": "MultiPolygon", "coordinates": [[[[1.065188, 44.12772818], [1.06529577, 44.12822987], [1.06538391, 44.12822598], [1.0652833, 44.12772921], [1.065188, 44.12772818]]]]}, "geometry_name": "geom", "properties": {"id_parcel": "11489640", "surf_parc": 0.04, "code_cultu": "SNE", "code_group": "28", "culture_d1": null, "culture_d2": null, "cat_cult_p": "NA"}}, {"type": "Feature", "id": "parcelles_graphiques.345766", "geometry": {"type": "MultiPolygon", "coordinates": [[[[1.09799198, 44.14395924], [1.09820136, 44.14378183], [1.09820841, 44.14376885], [1.09801856, 44.14370839], [1.09783449, 44.14387075], [1.09799198, 44.14395924]]]]}, "geometry_name": "geom", "properties": {"id_parcel": "270571", "surf_parc": 0.04, "code_cultu": "SNE", "code_group": "28", "culture_d1": null, "culture_d2": null, "cat_cult_p": "NA"}}, {"type": "Feature", "id": "parcelles_graphiques.345767", "geometry": {"type": "MultiPolygon", "coordinates": [[[[1.10472379, 44.14601422], [1.10467971, 44.14603122], [1.10486992, 44.14629138], [1.10525934, 44.14682411], [1.10530695, 44.14681193], [1.10491462, 44.14627525], [1.10472379, 44.14601422]]]]}, "geometry_name": "geom", "properties": {"id_parcel": "11483208", "surf_parc": 0.04, "code_cultu": "SNE", "code_group": "28", "culture_d1": null, "culture_d2": null, "cat_cult_p": "NA"}}, {"type": "Feature", "id": "parcelles_graphiques.372613", "geometry": {"type": "MultiPolygon", "coordinates": [[[[1.06359906, 44.13906478], [1.06360126, 44.13913504], [1.06414625, 44.13960556], [1.06419831, 44.13957905], [1.06419831, 44.13957904], [1.06419831, 44.13957904], [1.06360416, 44.13906916], [1.06360411, 44.13906911], [1.06359906, 44.13906478]]]]}, "geometry_name": "geom", "properties": {"id_parcel": "2321435", "surf_parc": 0.04, "code_cultu": "VRC", "code_group": "21", "culture_d1": null, "culture_d2": null, "cat_cult_p": "CP"}}, {"type": "Feature", "id": "parcelles_graphiques.380441", "geometry": {"type": "MultiPolygon", "coordinates": [[[[1.10639184, 44.13691111], [1.10639021, 44.13691095], [1.10632682, 44.13668069], [1.10632444, 44.13667445], [1.10610626, 44.13622973], [1.10611494, 44.13623051], [1.10608922, 44.13618287], [1.10601369, 44.13617613], [1.10626552, 44.13668944], [1.10633765, 44.13695143], [1.10639957, 44.13695721], [1.10639184, 44.13691111]]]]}, "geometry_name": "geom", "properties": {"id_parcel": "8369595", "surf_parc": 0.05, "code_cultu": "BOR", "code_group": "28", "culture_d1": null, "culture_d2": null, "cat_cult_p": null}}, {"type": "Feature", "id": "parcelles_graphiques.393274", "geometry": {"type": "MultiPolygon", "coordinates": [[[[1.10794332, 44.1473524], [1.10794465, 44.14735195], [1.10850614, 44.14808788], [1.10850573, 44.148088], [1.10853613, 44.14812766], [1.10859458, 44.14811033], [1.10797131, 44.14729343], [1.10791515, 44.1473122], [1.10794332, 44.1473524]]]]}, "geometry_name": "geom", "properties": {"id_parcel": "11488223", "surf_parc": 0.05, "code_cultu": "BTA", "code_group": "28", "culture_d1": null, "culture_d2": null, "cat_cult_p": null}}, {"type": "Feature", "id": "parcelles_graphiques.412670", "geometry": {"type": "MultiPolygon", "coordinates": [[[[1.06089087, 44.16066872], [1.06074932, 44.16047187], [1.06046188, 44.16065514], [1.06054076, 44.16074912], [1.06089087, 44.16066872]]]]}, "geometry_name": "geom", "properties": {"id_parcel": "866252", "surf_parc": 0.05, "code_cultu": "JAC", "code_group": "11", "culture_d1": null, "culture_d2": null, "cat_cult_p": "TA"}}, {"type": "Feature", "id": "parcelles_graphiques.438267", "geometry": {"type": "MultiPolygon", "coordinates": [[[[1.06415546, 44.12848638], [1.0642865, 44.12845223], [1.0641658, 44.12795812], [1.06405906, 44.12802712], [1.06409994, 44.12818676], [1.06415847, 44.12844854], [1.06415546, 44.12848638]]]]}, "geometry_name": "geom", "properties": {"id_parcel": "760192", "surf_parc": 0.05, "code_cultu": "PTR", "code_group": "19", "culture_d1": null, "culture_d2": null, "cat_cult_p": "TA"}}, {"type": "Feature", "id": "parcelles_graphiques.438268", "geometry": {"type": "MultiPolygon", "coordinates": [[[[1.073348, 44.1452911], [1.07289004, 44.14507161], [1.0735014, 44.14558043], [1.07344059, 44.1456295], [1.07346753, 44.14563818], [1.07352373, 44.14560752], [1.07349286, 44.14548539], [1.073348, 44.1452911]]]]}, "geometry_name": "geom", "properties": {"id_parcel": "7921736", "surf_parc": 0.05, "code_cultu": "PTR", "code_group": "19", "culture_d1": null, "culture_d2": null, "cat_cult_p": "TA"}}, {"type": "Feature", "id": "parcelles_graphiques.444788", "geometry": {"type": "MultiPolygon", "coordinates": [[[[1.06243225, 44.13668956], [1.06229121, 44.13674315], [1.0624643, 44.13700048], [1.06250355, 44.13687715], [1.06281645, 44.13696234], [1.06243225, 44.13668956]]]]}, "geometry_name": "geom", "properties": {"id_parcel": "2289120", "surf_parc": 0.05, "code_cultu": "SNE", "code_group": "28", "culture_d1": null, "culture_d2": null, "cat_cult_p": "NA"}}, {"type": "Feature", "id": "parcelles_graphiques.444789", "geometry": {"type": "MultiPolygon", "coordinates": [[[[1.06419756, 44.12793759], [1.0641658, 44.12795812], [1.0642865, 44.12845223], [1.06437065, 44.1284303], [1.06438079, 44.12842766], [1.06438777, 44.12842627], [1.06426746, 44.12789914], [1.06425228, 44.12790749], [1.06423321, 44.12791798], [1.06419756, 44.12793759]]]]}, "geometry_name": "geom", "properties": {"id_parcel": "1541418", "surf_parc": 0.05, "code_cultu": "SNE", "code_group": "28", "culture_d1": null, "culture_d2": null, "cat_cult_p": "NA"}}, {"type": "Feature", "id": "parcelles_graphiques.476715", "geometry": {"type": "MultiPolygon", "coordinates": [[[[1.07139318, 44.13064543], [1.07116212, 44.13067242], [1.07075002, 44.13071662], [1.07077283, 44.13076938], [1.07119828, 44.13072734], [1.07171271, 44.13065569], [1.07204176, 44.13057837], [1.07201995, 44.13052757], [1.07162791, 44.13061671], [1.07139318, 44.13064543]]]]}, "geometry_name": "geom", "properties": {"id_parcel": "11487517", "surf_parc": 0.06, "code_cultu": "BOR", "code_group": "28", "culture_d1": null, "culture_d2": null, "cat_cult_p": null}}, {"type": "Feature", "id": "parcelles_graphiques.507449", "geometry": {"type": "MultiPolygon", "coordinates": [[[[1.06546632, 44.12580722], [1.06577891, 44.12604957], [1.06584268, 44.12609901], [1.06613212, 44.1259266], [1.06610417, 44.12589878], [1.06597184, 44.12570588], [1.06582434, 44.12556988], [1.06556891, 44.12573922], [1.06546632, 44.12580722]], [[1.06555592, 44.12581224], [1.06581868, 44.12565806], [1.06584367, 44.12568736], [1.06595194, 44.12574486], [1.06600416, 44.12581366], [1.06603531, 44.1258702], [1.0660532, 44.12592768], [1.06593997, 44.12599953], [1.0658368, 44.12605488], [1.06557984, 44.1258312], [1.06555592, 44.12581224]]]]}, "geometry_name": "geom", "properties": {"id_parcel": "11488463", "surf_parc": 0.06, "code_cultu": "JAC", "code_group": "11", "culture_d1": null, "culture_d2": null, "cat_cult_p": "TA"}}, {"type": "Feature", "id": "parcelles_graphiques.507450", "geometry": {"type": "MultiPolygon", "coordinates": [[[[1.06699746, 44.12614271], [1.0671158, 44.12601893], [1.06651363, 44.1263062], [1.06665646, 44.12645541], [1.0669974, 44.12614278], [1.06699746, 44.12614271]]]]}, "geometry_name": "geom", "properties": {"id_parcel": "4781461", "surf_parc": 0.06, "code_cultu": "JAC", "code_group": "11", "culture_d1": null, "culture_d2": null, "cat_cult_p": "TA"}}, {"type": "Feature", "id": "parcelles_graphiques.521235", "geometry": {"type": "MultiPolygon", "coordinates": [[[[1.09598059, 44.1573963], [1.09612495, 44.15734759], [1.09605942, 44.1571962], [1.09603877, 44.15709904], [1.09604653, 44.15695207], [1.09587713, 44.15705978], [1.09587674, 44.15717897], [1.09587836, 44.15731596], [1.09598059, 44.1573963]]]]}, "geometry_name": "geom", "properties": {"id_parcel": "6668263", "surf_parc": 0.06, "code_cultu": "PPH", "code_group": "18", "culture_d1": null, "culture_d2": null, "cat_cult_p": "PP"}}, {"type": "Feature", "id": "parcelles_graphiques.567231", "geometry": {"type": "MultiPolygon", "coordinates": [[[[1.07253854, 44.12866168], [1.07253854, 44.12866167], [1.07252622, 44.12866475], [1.07221934, 44.12863893], [1.07217867, 44.12850183], [1.07216206, 44.12844587], [1.07198414, 44.12848712], [1.07197029, 44.12849033], [1.07200688, 44.12856445], [1.07211284, 44.12854571], [1.07220808, 44.12872264], [1.07232797, 44.12870736], [1.07237951, 44.12870415], [1.07251285, 44.12870575], [1.07273358, 44.12915694], [1.07233658, 44.12923225], [1.07235504, 44.12926963], [1.07236538, 44.12926769], [1.07277593, 44.12918779], [1.07265724, 44.12892473], [1.07253854, 44.12866168]]]]}, "geometry_name": "geom", "properties": {"id_parcel": "9433517", "surf_parc": 0.07, "code_cultu": "BOR", "code_group": "28", "culture_d1": null, "culture_d2": null, "cat_cult_p": null}}, {"type": "Feature", "id": "parcelles_graphiques.621191", "geometry": {"type": "MultiPolygon", "coordinates": [[[[1.06235262, 44.13703494], [1.06226319, 44.13691733], [1.06180973, 44.13712014], [1.06192826, 44.13725696], [1.06193333, 44.13725434], [1.06193333, 44.13725433], [1.06193334, 44.13725433], [1.0621778, 44.13712754], [1.06235262, 44.13703494]]]]}, "geometry_name": "geom", "properties": {"id_parcel": "2753521", "surf_parc": 0.07, "code_cultu": "PRU", "code_group": "20", "culture_d1": null, "culture_d2": null, "cat_cult_p": "CP"}}, {"type": "Feature", "id": "parcelles_graphiques.622158", "geometry": {"type": "MultiPolygon", "coordinates": [[[[1.07347915, 44.14475435], [1.07357115, 44.14481812], [1.0738531, 44.14483437], [1.07385042, 44.14468176], [1.0736907, 44.14453205], [1.07356962, 44.14463162], [1.07347915, 44.14475435]]]]}, "geometry_name": "geom", "properties": {"id_parcel": "3580379", "surf_parc": 0.07, "code_cultu": "PTR", "code_group": "19", "culture_d1": null, "culture_d2": null, "cat_cult_p": "TA"}}, {"type": "Feature", "id": "parcelles_graphiques.627904", "geometry": {"type": "MultiPolygon", "coordinates": [[[[1.05333886, 44.16725442], [1.05299726, 44.16744694], [1.05330942, 44.16764901], [1.05331759, 44.16748185], [1.05340768, 44.16735313], [1.05346086, 44.16730943], [1.05333886, 44.16725442]]]]}, "geometry_name": "geom", "properties": {"id_parcel": "6086890", "surf_parc": 0.07, "code_cultu": "SNE", "code_group": "28", "culture_d1": null, "culture_d2": null, "cat_cult_p": "NA"}}, {"type": "Feature", "id": "parcelles_graphiques.645484", "geometry": {"type": "MultiPolygon", "coordinates": [[[[1.07276815, 44.12930439], [1.07276239, 44.12930545], [1.07296319, 44.12984324], [1.07296645, 44.12984249], [1.07310036, 44.12981164], [1.07291653, 44.129276], [1.07276815, 44.12930439]]]]}, "geometry_name": "geom", "properties": {"id_parcel": "2411750", "surf_parc": 0.07, "code_cultu": "VRC", "code_group": "21", "culture_d1": null, "culture_d2": null, "cat_cult_p": "CP"}}, {"type": "Feature", "id": "parcelles_graphiques.653148", "geometry": {"type": "MultiPolygon", "coordinates": [[[[1.06504002, 44.13920424], [1.06504004, 44.13920423], [1.06408376, 44.13828755], [1.06387958, 44.13841682], [1.06387798, 44.13841783], [1.06359263, 44.13859848], [1.06363963, 44.13863886], [1.06393309, 44.13846351], [1.06403859, 44.13839885], [1.06410101, 44.1383606], [1.06410102, 44.1383606], [1.06410103, 44.1383606], [1.06474103, 44.13893649], [1.06500385, 44.13917298], [1.06492696, 44.13922298], [1.06485624, 44.13926898], [1.06485624, 44.13926898], [1.06485623, 44.13926898], [1.06456738, 44.13944867], [1.06456737, 44.13944867], [1.06440739, 44.13950716], [1.06440739, 44.13950716], [1.06440738, 44.13950716], [1.06443235, 44.13952742], [1.06443237, 44.13952743], [1.06452117, 44.13950784], [1.06452117, 44.13950784], [1.06459022, 44.13947181], [1.06459248, 44.13947063], [1.06462097, 44.13945576], [1.06487739, 44.13930185], [1.06504002, 44.13920424], [1.06504002, 44.13920424]]]]}, "geometry_name": "geom", "properties": {"id_parcel": "11492719", "surf_parc": 0.08, "code_cultu": "BOR", "code_group": "28", "culture_d1": null, "culture_d2": null, "cat_cult_p": null}}]}